NUSAT-1 (FRESCO)        
1 41557U 16033B   22336.88974922  .00018272  00000+0  46015-3 0  9998
2 41557  97.3897  75.4212 0010845 130.9594 324.5413 15.39900530363253
BEESAT-4                
1 41619U 16040W   22336.40308985  .00019972  00000+0  55642-3 0  9997
2 41619  97.1951  22.8963 0006712 224.7184 135.3520 15.36799426346463
CAS-2T & KS-1Q          
1 41847U 16066G   22336.43561040  .00000669  00000+0  10852-3 0  9991
2 41847  98.5318  40.7822 0363608  67.2910 296.6284 14.38930255318508
NAYIF-1 (EO-88)         
1 42017U 17008BX  22336.15713127  .00025227  00000+0  60165-3 0  9991
2 42017  97.2489  40.3229 0004166  22.7757 337.3674 15.41538876322842
ZHUHAI-1 02 (CAS-4B)    
1 42759U 17034B   22336.91829059  .00003108  00000+0  18353-3 0  9995
2 42759  43.0159 123.2437 0011456 276.4341 225.2340 15.13361811301863
ZHUHAI-1 01 (CAS-4A)    
1 42761U 17034D   22336.87648231  .00003323  00000+0  19485-3 0  9990
2 42761  43.0165 122.1381 0011746 279.1192 212.2378 15.13452917301860
MAX VALIER SAT          
1 42778U 17036P   22336.84919681  .00010655  00000+0  36598-3 0  9997
2 42778  97.1861  12.2897 0011861  87.1438 273.1161 15.30226466302628
RADFXSAT (FOX-1B)       
1 43017U 17073E   22336.62695529  .00005859  00000+0  43265-3 0  9992
2 43017  97.6536 223.8682 0244257 356.8906   3.0777 14.82750001272020
FOX-1D (AO-92)          
1 43137U 18004AC  22336.45770809  .00012976  00000+0  40487-3 0  9997
2 43137  97.3539  50.3454 0008357 120.4000 239.8069 15.33312879272052
DIWATA-2B               
1 43678U 18084H   22336.88190631  .00001261  00000+0  12847-3 0  9995
2 43678  97.9940 112.4074 0011265  90.8306 269.4218 14.92520019222975
ES'HAIL 2               
1 43700U 18090A   22336.82196609  .00000148  00000+0  00000+0 0  9990
2 43700   0.0205 311.6005 0001244 317.7867 123.9566  1.00269733 14715
FOX-1CLIFF (AO-95)      
1 43770U 18099N   22336.64965702  .00002814  00000+0  24671-3 0  9990
2 43770  97.6016  38.5402 0015177  74.6133 285.6765 14.97359567218173
ITASAT 1                
1 43786U 18099AE  22336.83302511  .00001865  00000+0  16502-3 0  9990
2 43786  97.6046  39.7199 0015518  65.2986 294.9849 14.97382721218242
JY1SAT (JO-97)          
1 43803U 18099AX  22336.65149428  .00003046  00000+0  26167-3 0  9997
2 43803  97.6004  39.3646 0015447  66.7070 293.5777 14.98088943218245
UWE-4                   
1 43880U 18111E   22336.72704483  .00002983  00000+0  24910-3 0  9996
2 43880  97.6558 240.0804 0011649 114.3494 245.8947 14.99247906214906
NEXUS (FO-99)           
1 43937U 19003F   22336.79918439  .00014991  00000+0  43374-3 0  9992
2 43937  97.1143   3.9269 0016196 270.8251  89.1137 15.35564872215766
PSAT2 (NO-104)          
1 44354U 19036R   22336.63778358  .00121175 -24693-5  60011-3 0  9990
2 44354  28.5193  73.4142 0146246  98.0514 263.6713 15.66420278190819
JAISAT-1                
1 44419U 19038F   22336.38816075  .00009797  00000+0  44922-3 0  9992
2 44419  97.6564 308.3901 0015566 272.2932  87.6520 15.20557445188547
DUCHIFAT-3              
1 44854U 19089C   22336.96041860  .00003464  00000+0  26206-3 0  9997
2 44854  36.9649 180.4799 0005947 159.7045 341.9160 15.02450997163273
CAS-6 (TIANQIN 1)       
1 44881U 19093C   22336.78484412  .00000563  00000+0  77588-4 0  9993
2 44881  97.8807  53.4841 0015082   3.9494 356.1836 14.81950722159709
RS-44 & BREEZE-KM R/B   
1 44909U 19096E   22336.67297934  .00000032  00000+0  91306-4 0  9991
2 44909  82.5193 118.5301 0216442 286.4664  71.2752 12.79716881137027
ORBITAL FACTORY 2 (OF-2)
1 45113U 19071C   22336.35148535  .00052641  00000+0  68991-3 0  9995
2 45113  51.6338 307.1035 0011640  72.7143 287.5122 15.57967420159421
HUSKYSAT-1 (HO-107)     
1 45119U 19071J   22336.33824857  .00044827  00000+0  65485-3 0  9999
2 45119  51.6350 309.2295 0011298  67.9346 292.2844 15.55116596159389
BY70-2                  
1 45857U 20042B   22336.80965233  .00007420  00000+0  93394-3 0  9992
2 45857  97.9443  52.1998 0008811 288.1385  71.8886 14.82301164130376
SALSAT                  
1 46495U 20068K   22336.72070167  .00003025  00000+0  21473-3 0  9999
2 46495  97.7479 278.2968 0017820  68.7917 291.5211 15.05387615119497
BY70-3                  
1 46839U 20079N   22336.91395355  .00041345  00000+0  67817-3 0  9992
2 46839  97.1801  47.6071 0005053  85.0240   2.0774 15.52320868116272
RADFXSAT-2 (AO-109)     
1 47311U 21002C   22336.84943818  .00010464  00000+0  37428-3 0  9993
2 47311  60.6842  86.9639 0038509  77.5213 283.0181 15.28663721104172
UVSQ-SAT                
1 47438U 21006AB  22336.85004203  .00007056  00000+0  34998-3 0  9996
2 47438  97.4168  32.4250 0012490  55.0058 305.2347 15.17958005102804
DIY-1 (ARDUIQUBE)       
1 47963U 21022AH  22336.17397926  .00024430  00000+0  11216-2 0  9991
2 47963  97.5168 236.0961 0011946 279.8678  80.1208 15.20335673 92366
XW-3 (CAS-9)            
1 50466U 21131B   22336.84380998  .00000190  00000+0  76520-4 0  9997
2 50466  98.5694  53.9178 0004496  21.6269 338.5107 14.38584869 49125
TEVEL-3                 
1 50988U 22002E   22336.94390661  .00008251  00000+0  41945-3 0  9991
2 50988  97.4620  41.1967 0008974 190.2620 344.7712 15.17078992 48937
TEVEL-8                 
1 50989U 22002F   22336.87777774  .00008087  00000+0  41190-3 0  9997
2 50989  97.4642  41.1691 0008847 190.4293 283.4154 15.17020835 48924
TEVEL-5                 
1 50998U 22002Q   22336.96566177  .00008576  00000+0  42891-3 0  9992
2 50998  97.4618  41.4199 0010445 186.6344 298.8414 15.17627086 48957
TEVEL-6                 
1 50999U 22002R   22336.96465569  .00008602  00000+0  43010-3 0  9990
2 50999  97.4611  41.4160 0010520 186.8818 298.0241 15.17633530 48952
TEVEL-1                 
1 51013U 22002AF  22336.94898029  .00008144  00000+0  41441-3 0  9994
2 51013  97.4624  41.1698 0008962 189.1251 345.3001 15.17048743 48935
TEVEL-7                 
1 51062U 22002CG  22336.87975446  .00008130  00000+0  41403-3 0  9992
2 51062  97.4635  41.1523 0008982 189.5012 283.9504 15.17019516 48929
TEVEL-4                 
1 51063U 22002CH  22336.95865583  .00008117  00000+0  41357-3 0  9995
2 51063  97.4634  41.2228 0009048 188.7897 345.9723 15.17003690 48937
TEVEL-2                 
1 51069U 22002CP  22336.87001701  .00008208  00000+0  41740-3 0  9993
2 51069  97.4618  41.1047 0008767 191.1015 291.1130 15.17072649 48923
GREENCUBE               
1 53106U 22080B   22334.45194177 -.00000003  00000+0  00000+0 0  9991
2 53106  70.1746  28.7668 0008951 229.3699 130.6183  6.42557462  8980
YUZGU 9 (RS3S)          
1 53308U 98067TT  22336.82454794  .00098556  00000+0  84612-3 0  9994
2 53308  51.6350 214.1566 0008449 157.9187 202.2175 15.68532866 20976
YUZGU 7 (RS1S)          
1 53309U 98067TU  22336.80386375  .00104625  00000+0  87337-3 0  9994
2 53309  51.6349 214.0119 0008862 161.3602 198.7721 15.69184709 20929
YUZGU 11 (RS5S)         
1 53310U 98067TV  22336.82338226  .00099294  00000+0  85252-3 0  9999
2 53310  51.6351 214.1478 0008650 159.9761 200.1577 15.68525560 20950
YUZGU 12 (RS6S)         
1 53311U 98067TW  22336.84589127  .00109531  00000+0  88667-3 0  9999
2 53311  51.6345 213.5409 0008452 158.1491 201.9868 15.69911529 20982
TSIOLKOVSKY-RYAZAN 1 (*)
1 53312U 98067TX  22336.80646654  .00106116  00000+0  89745-3 0  9999
2 53312  51.6356 214.0363 0008910 161.5397 198.5925 15.68861227 20918
TSIOLKOVSKY-RYAZAN 2 (*)
1 53313U 98067TY  22336.80201902  .00102092  00000+0  85785-3 0  9992
2 53313  51.6358 214.0075 0008491 162.8538 197.2747 15.69039969 20960
YUZGU 10 (RS4S)         
1 53321U 98067TZ  22336.81533183  .00102628  00000+0  86806-3 0  9991
2 53321  51.6350 214.0945 0008636 159.7458 200.3883 15.68875952 20960
RS29S (SXC3-2110 CYCLO*)
1 53373U 22096D   22336.88358978  .00011841  00000+0  44625-3 0  9990
2 53373  97.4275 237.6078 0003037  97.8385 324.5422 15.27223947 17623
RS32S (SXC3-212 MONITO*)
1 53374U 22096E   22336.87632612  .00010578  00000+0  39834-3 0  9992
2 53374  97.4265 237.6138 0003238  92.4915 333.0922 15.27279713 17625
RS34S (SXC3-218 KUZBAS*)
1 53375U 22096F   22336.82441050  .00009737  00000+0  37132-3 0  9996
2 53375  97.4274 237.5377 0003229  95.5671 338.6058 15.26886662 17619
RS23S (SXC3-21 UTMN)    
1 53376U 22096G   22336.88519633  .00010102  00000+0  38425-3 0  9990
2 53376  97.4271 237.6057 0003243  91.9015 332.9346 15.26960467 17625
RS28S (SXC3-214 MIET-A*)
1 53377U 22096H   22336.88408906  .00009372  00000+0  35737-3 0  9991
2 53377  97.4280 237.6081 0003348  91.1294 331.2343 15.26899801 17622
RS26S (KAI-1)           
1 53378U 22096J   22336.96662370  .00008512  00000+0  32673-3 0  9999
2 53378  97.4278 237.6765 0003415  86.4243  42.0210 15.26706937 17633
RS19S (SXC3-219 ISOI)   
1 53381U 22096M   22336.78789138  .00009319  00000+0  34980-3 0  9994
2 53381  97.4270 237.5913 0005915  53.5185  34.0937 15.27412197 17618
RS21S (CUBESX-HSE-2)    
1 53383U 22096P   22336.84622313  .00009844  00000+0  36880-3 0  9998
2 53383  97.4274 237.6602 0006075  52.9177  12.2312 15.27460759 17625
RS30S (SXC3-217 SIREN)  
1 53384U 22096Q   22336.91483976  .00009036  00000+0  34035-3 0  9990
2 53384  97.4278 237.7198 0006089  52.4182  13.3554 15.27305302 17630
RS20S (GEOSCAN-EDELVEIS)
1 53385U 22096R   22336.88081799  .00012408  00000+0  45374-3 0  9999
2 53385  97.4267 237.7610 0006615  49.7795  14.4861 15.28191955 17666
RS33S (SXC3-215 VIZARD) 
1 53386U 22096S   22336.92400456  .00014542  00000+0  51850-3 0  9997
2 53386  97.4269 237.8840 0007357  49.9830  81.8964 15.28980577 17669
